[{"OBJECT_NAME":"ONEWEB-0282","OBJECT_ID":"2021-060AK","EPOCH":"2026-03-06T04:43:01.677216","MEAN_MOTION":13.16593895,"ECCENTRICITY":0.00017084,"INCLINATION":87.9001,"RA_OF_ASC_NODE":249.2683,"ARG_OF_PERICENTER":98.759,"MEAN_ANOMALY":261.3734,"EPHEMERIS_TYPE":0,"CLASSIFICATION_TYPE":"U","NORAD_CAT_ID":49000,"ELEMENT_SET_NO":999,"REV_AT_EPOCH":22605,"BSTAR":0.0003347621,"MEAN_MOTION_DOT":1.41e-6,"MEAN_MOTION_DDOT":0},{"OBJECT_NAME":"ONEWEB-0283","OBJECT_ID":"2021-060AL","EPOCH":"2026-03-06T06:16:30.052416","MEAN_MOTION":13.16593947,"ECCENTRICITY":0.00015698,"INCLINATION":87.9001,"RA_OF_ASC_NODE":249.2554,"ARG_OF_PERICENTER":101.2902,"MEAN_ANOMALY":258.8405,"EPHEMERIS_TYPE":0,"CLASSIFICATION_TYPE":"U","NORAD_CAT_ID":49001,"ELEMENT_SET_NO":999,"REV_AT_EPOCH":22607,"BSTAR":0.00039701854,"MEAN_MOTION_DOT":1.65e-6,"MEAN_MOTION_DDOT":0},{"OBJECT_NAME":"ONEWEB-0284","OBJECT_ID":"2021-060AM","EPOCH":"2026-03-05T21:00:13.006656","MEAN_MOTION":13.16593345,"ECCENTRICITY":0.00019147,"INCLINATION":87.9002,"RA_OF_ASC_NODE":249.3237,"ARG_OF_PERICENTER":92.2966,"MEAN_ANOMALY":267.8384,"EPHEMERIS_TYPE":0,"CLASSIFICATION_TYPE":"U","NORAD_CAT_ID":49002,"ELEMENT_SET_NO":999,"REV_AT_EPOCH":22600,"BSTAR":-8.8406187e-5,"MEAN_MOTION_DOT":-2.1e-7,"MEAN_MOTION_DDOT":0},{"OBJECT_NAME":"ONEWEB-0285","OBJECT_ID":"2021-075A","EPOCH":"2026-03-06T07:01:18.026400","MEAN_MOTION":13.12442304,"ECCENTRICITY":0.000184,"INCLINATION":87.9,"RA_OF_ASC_NODE":11.0815,"ARG_OF_PERICENTER":82.3478,"MEAN_ANOMALY":277.786,"EPHEMERIS_TYPE":0,"CLASSIFICATION_TYPE":"U","NORAD_CAT_ID":49075,"ELEMENT_SET_NO":999,"REV_AT_EPOCH":22171,"BSTAR":0.0013157407,"MEAN_MOTION_DOT":4.86e-6,"MEAN_MOTION_DDOT":0},{"OBJECT_NAME":"ONEWEB-0286","OBJECT_ID":"2021-075B","EPOCH":"2026-03-06T06:35:29.672736","MEAN_MOTION":13.12444461,"ECCENTRICITY":0.00017443,"INCLINATION":87.899,"RA_OF_ASC_NODE":11.1119,"ARG_OF_PERICENTER":73.8162,"MEAN_ANOMALY":286.3159,"EPHEMERIS_TYPE":0,"CLASSIFICATION_TYPE":"U","NORAD_CAT_ID":49076,"ELEMENT_SET_NO":999,"REV_AT_EPOCH":22106,"BSTAR":5.5647055e-5,"MEAN_MOTION_DOT":3.3e-7,"MEAN_MOTION_DDOT":0},{"OBJECT_NAME":"ONEWEB-0287","OBJECT_ID":"2021-075C","EPOCH":"2026-03-06T06:33:19.703808","MEAN_MOTION":13.1764903,"ECCENTRICITY":0.00019078,"INCLINATION":87.9145,"RA_OF_ASC_NODE":26.3031,"ARG_OF_PERICENTER":67.2772,"MEAN_ANOMALY":292.8561,"EPHEMERIS_TYPE":0,"CLASSIFICATION_TYPE":"U","NORAD_CAT_ID":49077,"ELEMENT_SET_NO":999,"REV_AT_EPOCH":22007,"BSTAR":-0.00041247726,"MEAN_MOTION_DOT":-1.47e-6,"MEAN_MOTION_DDOT":0},{"OBJECT_NAME":"ONEWEB-0288","OBJECT_ID":"2021-075D","EPOCH":"2026-03-06T06:01:31.965888","MEAN_MOTION":13.12441379,"ECCENTRICITY":0.00019085,"INCLINATION":87.8999,"RA_OF_ASC_NODE":11.0846,"ARG_OF_PERICENTER":78.1432,"MEAN_ANOMALY":281.991,"EPHEMERIS_TYPE":0,"CLASSIFICATION_TYPE":"U","NORAD_CAT_ID":49078,"ELEMENT_SET_NO":999,"REV_AT_EPOCH":22168,"BSTAR":-0.00090467404,"MEAN_MOTION_DOT":-3.13e-6,"MEAN_MOTION_DDOT":0},{"OBJECT_NAME":"ONEWEB-0289","OBJECT_ID":"2021-075E","EPOCH":"2026-03-05T22:22:15.828960","MEAN_MOTION":13.17648781,"ECCENTRICITY":0.0002298,"INCLINATION":87.9149,"RA_OF_ASC_NODE":26.3826,"ARG_OF_PERICENTER":84.9411,"MEAN_ANOMALY":275.1983,"EPHEMERIS_TYPE":0,"CLASSIFICATION_TYPE":"U","NORAD_CAT_ID":49079,"ELEMENT_SET_NO":999,"REV_AT_EPOCH":22060,"BSTAR":-0.00064047672,"MEAN_MOTION_DOT":-2.36e-6,"MEAN_MOTION_DDOT":0},{"OBJECT_NAME":"ONEWEB-0290","OBJECT_ID":"2021-075F","EPOCH":"2026-03-06T06:50:21.836544","MEAN_MOTION":13.17647413,"ECCENTRICITY":0.00023397,"INCLINATION":87.9156,"RA_OF_ASC_NODE":26.2801,"ARG_OF_PERICENTER":89.2394,"MEAN_ANOMALY":270.9005,"EPHEMERIS_TYPE":0,"CLASSIFICATION_TYPE":"U","NORAD_CAT_ID":49080,"ELEMENT_SET_NO":999,"REV_AT_EPOCH":22006,"BSTAR":5.4612113e-5,"MEAN_MOTION_DOT":3.4e-7,"MEAN_MOTION_DDOT":0},{"OBJECT_NAME":"ONEWEB-0291","OBJECT_ID":"2021-075G","EPOCH":"2026-03-06T06:28:28.830432","MEAN_MOTION":13.17649073,"ECCENTRICITY":0.00021521,"INCLINATION":87.9152,"RA_OF_ASC_NODE":26.2923,"ARG_OF_PERICENTER":73.99,"MEAN_ANOMALY":286.1469,"EPHEMERIS_TYPE":0,"CLASSIFICATION_TYPE":"U","NORAD_CAT_ID":49081,"ELEMENT_SET_NO":999,"REV_AT_EPOCH":22005,"BSTAR":3.8856691e-5,"MEAN_MOTION_DOT":2.8e-7,"MEAN_MOTION_DDOT":0},{"OBJECT_NAME":"ONEWEB-0293","OBJECT_ID":"2021-075H","EPOCH":"2026-03-06T07:04:56.141472","MEAN_MOTION":13.17649238,"ECCENTRICITY":0.00020047,"INCLINATION":87.9145,"RA_OF_ASC_NODE":26.2985,"ARG_OF_PERICENTER":81.6703,"MEAN_ANOMALY":278.4656,"EPHEMERIS_TYPE":0,"CLASSIFICATION_TYPE":"U","NORAD_CAT_ID":49082,"ELEMENT_SET_NO":999,"REV_AT_EPOCH":22008,"BSTAR":2.1498421e-5,"MEAN_MOTION_DOT":2.1e-7,"MEAN_MOTION_DDOT":0},{"OBJECT_NAME":"ONEWEB-0294","OBJECT_ID":"2021-075J","EPOCH":"2026-03-06T06:11:17.287872","MEAN_MOTION":13.12441719,"ECCENTRICITY":0.00021384,"INCLINATION":87.9,"RA_OF_ASC_NODE":11.0854,"ARG_OF_PERICENTER":82.9057,"MEAN_ANOMALY":277.2315,"EPHEMERIS_TYPE":0,"CLASSIFICATION_TYPE":"U","NORAD_CAT_ID":49083,"ELEMENT_SET_NO":999,"REV_AT_EPOCH":22107,"BSTAR":-0.001092876,"MEAN_MOTION_DOT":-3.8e-6,"MEAN_MOTION_DDOT":0},{"OBJECT_NAME":"ONEWEB-0295","OBJECT_ID":"2021-075K","EPOCH":"2026-03-06T07:03:43.569792","MEAN_MOTION":13.17649964,"ECCENTRICITY":0.00019966,"INCLINATION":87.9138,"RA_OF_ASC_NODE":26.3034,"ARG_OF_PERICENTER":71.6076,"MEAN_ANOMALY":288.5272,"EPHEMERIS_TYPE":0,"CLASSIFICATION_TYPE":"U","NORAD_CAT_ID":49084,"ELEMENT_SET_NO":999,"REV_AT_EPOCH":22004,"BSTAR":-9.0050823e-5,"MEAN_MOTION_DOT":-2.2e-7,"MEAN_MOTION_DDOT":0},{"OBJECT_NAME":"ONEWEB-0296","OBJECT_ID":"2021-075L","EPOCH":"2026-03-06T05:42:01.118016","MEAN_MOTION":13.12440985,"ECCENTRICITY":0.0002031,"INCLINATION":87.9002,"RA_OF_ASC_NODE":11.0931,"ARG_OF_PERICENTER":71.2815,"MEAN_ANOMALY":288.8534,"EPHEMERIS_TYPE":0,"CLASSIFICATION_TYPE":"U","NORAD_CAT_ID":49085,"ELEMENT_SET_NO":999,"REV_AT_EPOCH":22107,"BSTAR":7.8191273e-5,"MEAN_MOTION_DOT":4.1e-7,"MEAN_MOTION_DDOT":0},{"OBJECT_NAME":"ONEWEB-0297","OBJECT_ID":"2021-075M","EPOCH":"2026-03-06T06:25:55.909344","MEAN_MOTION":13.1244244,"ECCENTRICITY":0.00018358,"INCLINATION":87.8991,"RA_OF_ASC_NODE":11.1121,"ARG_OF_PERICENTER":76.1558,"MEAN_ANOMALY":283.9775,"EPHEMERIS_TYPE":0,"CLASSIFICATION_TYPE":"U","NORAD_CAT_ID":49086,"ELEMENT_SET_NO":999,"REV_AT_EPOCH":22168,"BSTAR":-0.00074361845,"MEAN_MOTION_DOT":-2.55e-6,"MEAN_MOTION_DDOT":0},{"OBJECT_NAME":"ONEWEB-0298","OBJECT_ID":"2021-075N","EPOCH":"2026-03-05T22:03:14.278464","MEAN_MOTION":13.17650994,"ECCENTRICITY":0.00018131,"INCLINATION":87.9141,"RA_OF_ASC_NODE":26.3749,"ARG_OF_PERICENTER":81.8479,"MEAN_ANOMALY":278.2858,"EPHEMERIS_TYPE":0,"CLASSIFICATION_TYPE":"U","NORAD_CAT_ID":49087,"ELEMENT_SET_NO":999,"REV_AT_EPOCH":22002,"BSTAR":7.8838145e-5,"MEAN_MOTION_DOT":4.3e-7,"MEAN_MOTION_DDOT":0},{"OBJECT_NAME":"ONEWEB-0299","OBJECT_ID":"2021-075P","EPOCH":"2026-03-05T22:05:27.850272","MEAN_MOTION":13.1765002,"ECCENTRICITY":0.00018449,"INCLINATION":87.9156,"RA_OF_ASC_NODE":26.3446,"ARG_OF_PERICENTER":77.3821,"MEAN_ANOMALY":282.7517,"EPHEMERIS_TYPE":0,"CLASSIFICATION_TYPE":"U","NORAD_CAT_ID":49088,"ELEMENT_SET_NO":999,"REV_AT_EPOCH":22000,"BSTAR":1.3943224e-5,"MEAN_MOTION_DOT":1.8e-7,"MEAN_MOTION_DDOT":0}]
