ONEWEB-0282             
1 49000U 21060AK  26065.19654719  .00000141  00000+0  33476-3 0  9994
2 49000  87.9001 249.2683 0001708  98.7590 261.3734 13.16593895226059
ONEWEB-0283             
1 49001U 21060AL  26065.26145894  .00000165  00000+0  39702-3 0  9996
2 49001  87.9001 249.2554 0001569 101.2902 258.8405 13.16593947226075
ONEWEB-0284             
1 49002U 21060AM  26064.87515054 -.00000021  00000+0 -88406-4 0  9991
2 49002  87.9002 249.3237 0001914  92.2966 267.8384 13.16593345226000
ONEWEB-0285             
1 49075U 21075A   26065.29256975  .00000486  00000+0  13157-2 0  9990
2 49075  87.9000  11.0815 0001840  82.3478 277.7860 13.12442304221716
ONEWEB-0286             
1 49076U 21075B   26065.27464899  .00000033  00000+0  55647-4 0  9995
2 49076  87.8990  11.1119 0001744  73.8162 286.3159 13.12444461221061
ONEWEB-0287             
1 49077U 21075C   26065.27314472 -.00000147  00000+0 -41248-3 0  9996
2 49077  87.9145  26.3031 0001907  67.2772 292.8561 13.17649030220074
ONEWEB-0288             
1 49078U 21075D   26065.25106442 -.00000313  00000+0 -90467-3 0  9993
2 49078  87.8999  11.0846 0001908  78.1432 281.9910 13.12441379221687
ONEWEB-0289             
1 49079U 21075E   26064.93212765 -.00000236  00000+0 -64048-3 0  9994
2 49079  87.9149  26.3826 0002298  84.9411 275.1983 13.17648781220605
ONEWEB-0290             
1 49080U 21075F   26065.28497496  .00000034  00000+0  54612-4 0  9992
2 49080  87.9156  26.2801 0002339  89.2394 270.9005 13.17647413220060
ONEWEB-0291             
1 49081U 21075G   26065.26977813  .00000028  00000+0  38857-4 0  9993
2 49081  87.9152  26.2923 0002152  73.9900 286.1469 13.17649073220054
ONEWEB-0293             
1 49082U 21075H   26065.29509423  .00000021  00000+0  21498-4 0  9991
2 49082  87.9145  26.2985 0002004  81.6703 278.4656 13.17649238220086
ONEWEB-0294             
1 49083U 21075J   26065.25783898 -.00000380  00000+0 -10929-2 0  9993
2 49083  87.9000  11.0854 0002138  82.9057 277.2315 13.12441719221076
ONEWEB-0295             
1 49084U 21075K   26065.29425428 -.00000022  00000+0 -90051-4 0  9999
2 49084  87.9138  26.3034 0001996  71.6076 288.5272 13.17649964220045
ONEWEB-0296             
1 49085U 21075L   26065.23751294  .00000041  00000+0  78191-4 0  9997
2 49085  87.9002  11.0931 0002031  71.2815 288.8534 13.12440985221076
ONEWEB-0297             
1 49086U 21075M   26065.26800821 -.00000255  00000+0 -74362-3 0  9996
2 49086  87.8991  11.1121 0001835  76.1558 283.9775 13.12442440221682
ONEWEB-0298             
1 49087U 21075N   26064.91891526  .00000043  00000+0  78838-4 0  9996
2 49087  87.9141  26.3749 0001813  81.8479 278.2858 13.17650994220022
ONEWEB-0299             
1 49088U 21075P   26064.92046123  .00000018  00000+0  13943-4 0  9991
2 49088  87.9156  26.3446 0001844  77.3821 282.7517 13.17650020220008
